$$SOE
2461302.500000000, A.D. 2026-Sep-19 00:00:00.0000, 1.099644183945968E+08, 1.743061378837944E+08, 3.772381174299928E+07,
2461309.500000000, A.D. 2026-Sep-26 00:00:00.0000, 1.092262032226164E+08, 1.877049010755489E+08, 3.887223295871157E+07,
2461316.500000000, A.D. 2026-Oct-03 00:00:00.0000, 1.079926861406491E+08, 2.002541578473676E+08, 3.984454523954770E+07,
2461323.500000000, A.D. 2026-Oct-10 00:00:00.0000, 1.063326176968785E+08, 2.120137714441062E+08, 4.065960909469849E+07,
2461330.500000000, A.D. 2026-Oct-17 00:00:00.0000, 1.043012807829177E+08, 2.230342017843370E+08, 4.133281393402603E+07,
2461337.500000000, A.D. 2026-Oct-24 00:00:00.0000, 1.019439131401453E+08, 2.333583591854142E+08, 4.187690859785587E+07,
2461344.500000000, A.D. 2026-Oct-31 00:00:00.0000, 9.929810111992000E+07, 2.430230079306686E+08, 4.230259253961463E+07,
2461351.500000000, A.D. 2026-Nov-07 00:00:00.0000, 9.639549754305393E+07, 2.520598438581851E+08, 4.261894674576582E+07,
2461358.500000000, A.D. 2026-Nov-14 00:00:00.0000, 9.326308269438088E+07, 2.604963332828675E+08, 4.283375445563197E+07,
2461365.500000000, A.D. 2026-Nov-21 00:00:00.0000, 8.992410688573550E+07, 2.683563748196681E+08, 4.295374446554697E+07,
2461372.500000000, A.D. 2026-Nov-28 00:00:00.0000, 8.639880594827920E+07, 2.756608245577014E+08, 4.298477862638861E+07,
2461379.500000000, A.D. 2026-Dec-05 00:00:00.0000, 8.270495560172497E+07, 2.824279154531106E+08, 4.293199806322783E+07,
2461386.500000000, A.D. 2026-Dec-12 00:00:00.0000, 7.885830790173244E+07, 2.886735972236412E+08, 4.279993879676458E+07,
2461393.500000000, A.D. 2026-Dec-19 00:00:00.0000, 7.487293818334922E+07, 2.944118139767010E+08, 4.259262438483953E+07,
2461400.500000000, A.D. 2026-Dec-26 00:00:00.0000, 7.076152409686291E+07, 2.996547316585618E+08, 4.231364092599660E+07,
2461407.500000000, A.D. 2027-Jan-02 00:00:00.0000, 6.653557287238931E+07, 3.044129249649469E+08, 4.196619835769807E+07,
2461414.500000000, A.D. 2027-Jan-09 00:00:00.0000, 6.220560867935557E+07, 3.086955312478026E+08, 4.155318100158148E+07,
2461421.500000000, A.D. 2027-Jan-16 00:00:00.0000, 5.778132894129256E+07, 3.125103772072167E+08, 4.107718958672008E+07,
2461428.500000000, A.D. 2027-Jan-23 00:00:00.0000, 5.327173636882365E+07, 3.158640827998419E+08, 4.054057644862244E+07,
2461435.500000000, A.D. 2027-Jan-30 00:00:00.0000, 4.868525208179368E+07, 3.187621457885754E+08, 3.994547520143539E+07,
2461442.500000000, A.D. 2027-Feb-06 00:00:00.0000, 4.402981430562383E+07, 3.212090099737050E+08, 3.929382590469381E+07,
2461449.500000000, A.D. 2027-Feb-13 00:00:00.0000, 3.931296541899868E+07, 3.232081204166962E+08, 3.858739668433240E+07,
2461456.500000000, A.D. 2027-Feb-20 00:00:00.0000, 3.454192762216052E+07, 3.247619664533425E+08, 3.782780261261390E+07,
2461463.500000000, A.D. 2027-Feb-27 00:00:00.0000, 2.972367079381083E+07, 3.258721104515575E+08, 3.701652198369995E+07,
2461470.500000000, A.D. 2027-Mar-06 00:00:00.0000, 2.486497739971789E+07, 3.265392050806933E+08, 3.615491030129795E+07,
2461477.500000000, A.D. 2027-Mar-13 00:00:00.0000, 1.997250448421831E+07, 3.267630016783100E+08, 3.524421265379627E+07,
2461484.500000000, A.D. 2027-Mar-20 00:00:00.0000, 1.505284309316157E+07, 3.265423491239204E+08, 3.428557481630085E+07,
2461491.500000000, A.D. 2027-Mar-27 00:00:00.0000, 1.011257672435444E+07, 3.258751826505998E+08, 3.328005328015140E+07,
2461498.500000000, A.D. 2027-Apr-03 00:00:00.0000, 5.158340386755244E+06, 3.247585022616361E+08, 3.222862442283428E+07,
2461505.500000000, A.D. 2027-Apr-10 00:00:00.0000, 1.968817550523990E+05, 3.231883402095215E+08, 3.113219303176147E+07,
2461512.500000000, A.D. 2027-Apr-17 00:00:00.0000, -4.764874019419858E+06, 3.211597166485314E+08, 2.999160038777903E+07,
2461519.500000000, A.D. 2027-Apr-24 00:00:00.0000, -9.719754033964224E+06, 3.186665821717691E+08, 2.880763210730903E+07,
2461526.500000000, A.D. 2027-May-01 00:00:00.0000, -1.466025958762105E+07, 3.157017456178523E+08, 2.758102594282256E+07,
2461533.500000000, A.D. 2027-May-08 00:00:00.0000, -1.957847765078201E+07, 3.122567857515323E+08, 2.631247982694899E+07,
2461540.500000000, A.D. 2027-May-15 00:00:00.0000, -2.446598039408628E+07, 3.083219450081746E+08, 2.500266067186630E+07,
2461547.500000000, A.D. 2027-May-22 00:00:00.0000, -2.931371063035186E+07, 3.038859991447762E+08, 2.365221421663472E+07,
2461554.500000000, A.D. 2027-May-29 00:00:00.0000, -3.411184509602307E+07, 2.989360967371436E+08, 2.226177595381846E+07,
2461561.500000000, A.D. 2027-Jun-05 00:00:00.0000, -3.884962856859921E+07, 2.934575657679974E+08, 2.083198391239031E+07,
2461568.500000000, A.D. 2027-Jun-12 00:00:00.0000, -4.351517274525774E+07, 2.874336800989275E+08, 1.936349431923725E+07,
2461575.500000000, A.D. 2027-Jun-19 00:00:00.0000, -4.809520940671811E+07, 2.808453748960615E+08, 1.785700119021268E+07,
2461582.500000000, A.D. 2027-Jun-26 00:00:00.0000, -5.257478291075815E+07, 2.736708975740608E+08, 1.631326133397733E+07,
2461589.500000000, A.D. 2027-Jul-03 00:00:00.0000, -5.693686162239001E+07, 2.658853767149933E+08, 1.473312693125388E+07,
2461596.500000000, A.D. 2027-Jul-10 00:00:00.0000, -6.116183978939572E+07, 2.574602853001254E+08, 1.311758883449106E+07,
2461603.500000000, A.D. 2027-Jul-17 00:00:00.0000, -6.522688911077906E+07, 2.483627658606469E+08, 1.146783522937801E+07,
2461610.500000000, A.D. 2027-Jul-24 00:00:00.0000, -6.910510036065070E+07, 2.385547725832430E+08, 9.785332647553936E+06,
2461617.500000000, A.D. 2027-Jul-31 00:00:00.0000, -7.276432575345211E+07, 2.279919672060953E+08, 8.071940129032046E+06,
2461624.500000000, A.D. 2027-Aug-07 00:00:00.0000, -7.616558601863669E+07, 2.166222786222132E+08, 6.330073793633431E+06,
2461631.500000000, A.D. 2027-Aug-14 00:00:00.0000, -7.926082978488934E+07, 2.043839920930939E+08, 4.562950036273301E+06,
2461638.500000000, A.D. 2027-Aug-21 00:00:00.0000, -8.198969491987693E+07, 1.912031643144369E+08, 2.774954403308004E+06,
2461645.500000000, A.D. 2027-Aug-28 00:00:00.0000, -8.427467643358247E+07, 1.769900586617563E+08, 9.722192379598990E+05,
2461652.500000000, A.D. 2027-Sep-04 00:00:00.0000, -8.601365455673018E+07, 1.616341221676738E+08, -8.364362865267023E+05,
2461659.500000000, A.D. 2027-Sep-11 00:00:00.0000, -8.706783062218723E+07, 1.449967338717035E+08, -2.637905545089863E+06,
2461666.500000000, A.D. 2027-Sep-18 00:00:00.0000, -8.724118914520963E+07, 1.269004794361638E+08, -4.411913593599930E+06,
2461673.500000000, A.D. 2027-Sep-25 00:00:00.0000, -8.624315212981468E+07, 1.071129870244338E+08, -6.125457446625158E+06,
2461680.500000000, A.D. 2027-Oct-02 00:00:00.0000, -8.361470318012002E+07, 8.532268489093834E+07, -7.721064108142141E+06,
2461687.500000000, A.D. 2027-Oct-09 00:00:00.0000, -7.856509911854616E+07, 6.110629616507072E+07, -9.088809421189301E+06,
2461694.500000000, A.D. 2027-Oct-16 00:00:00.0000, -6.955240342227484E+07, 3.391857888824918E+07, -9.987391928476322E+06,
2461701.500000000, A.D. 2027-Oct-23 00:00:00.0000, -5.297169892302404E+07, 3.438485006228901E+06, -9.760920090271706E+06,
2461708.500000000, A.D. 2027-Oct-30 00:00:00.0000, -1.906343941308829E+07, -2.561995195781330E+07, -6.096574453879728E+06,
2461715.500000000, A.D. 2027-Nov-06 00:00:00.0000, 3.049884517477035E+07, -2.324014879528206E+07, 3.574563507101522E+06,
2461722.500000000, A.D. 2027-Nov-13 00:00:00.0000, 6.118336013370246E+07, 2.417956623167417E+06, 1.188875660565147E+07,
2461729.500000000, A.D. 2027-Nov-20 00:00:00.0000, 7.882293258728132E+07, 2.879860446673236E+07, 1.778724515756015E+07,
2461736.500000000, A.D. 2027-Nov-27 00:00:00.0000, 9.011406981133737E+07, 5.308614782562129E+07, 2.227491008817079E+07,
2461743.500000000, A.D. 2027-Dec-04 00:00:00.0000, 9.772697633045892E+07, 7.527733299970338E+07, 2.586014231363574E+07,
2461750.500000000, A.D. 2027-Dec-11 00:00:00.0000, 1.029277924562864E+08, 9.564037033234994E+07, 2.880996002375170E+07,
2461757.500000000, A.D. 2027-Dec-18 00:00:00.0000, 1.064141209769396E+08, 1.144255524817236E+08, 3.128134576348208E+07,
2461764.500000000, A.D. 2027-Dec-25 00:00:00.0000, 1.086125168634585E+08, 1.318346617036942E+08, 3.337497731550974E+07,
2461771.500000000, A.D. 2028-Jan-01 00:00:00.0000, 1.098039731529016E+08, 1.480271169023824E+08, 3.515972507374499E+07,
$$EOE